{"type": "FeatureCollection", "features": [ {"type": "Feature", "properties": {"norad_id": 66959, "name": "STARLINK-35887", "group": "last-30-days", "lat": 11.054392614426922, "lon": -100.69732507582079, "alt_km": 369.3967055760495, "timestamp": "2025-12-25T03:55:54.955538+00:00", "meta": {"OBJECT_NAME": "STARLINK-35887", "OBJECT_ID": "2025-288A", "EPOCH": "2025-12-24T20:00:01.000224", "MEAN_MOTION": 15.67398458, "ECCENTRICITY": 0.0001449, "INCLINATION": 43.0001, "RA_OF_ASC_NODE": 93.3855, "ARG_OF_PERICENTER": 290.6723, "MEAN_ANOMALY": 166.7177, "EPHEMERIS_TYPE": 0, "CLASSIFICATION_TYPE": "U", "NORAD_CAT_ID": 66959, "ELEMENT_SET_NO": 999, "REV_AT_EPOCH": 377, "BSTAR": -0.020218, "MEAN_MOTION_DOT": -0.01983467, "MEAN_MOTION_DDOT": 0}, "tle": {"line1": "1 66959U 25288A   25358.83334491 -.01983467  00000+0 -20218-1 0  9991", "line2": "2 66959  43.0001  93.3855 0001449 290.6723 166.7177 15.67398458  3773"}}, "geometry": {"type": "Point", "coordinates": [-100.69732507582079, 11.054392614426922]}}, {"type": "Feature", "properties": {"norad_id": 66960, "name": "STARLINK-35879", "group": "last-30-days", "lat": 9.77275028135295, "lon": -99.25163285829012, "alt_km": 369.544111714923, "timestamp": "2025-12-25T03:55:54.955548+00:00", "meta": {"OBJECT_NAME": "STARLINK-35879", "OBJECT_ID": "2025-288B", "EPOCH": "2025-12-24T20:00:01.000224", "MEAN_MOTION": 15.67392272, "ECCENTRICITY": 0.0001464, "INCLINATION": 43.0002, "RA_OF_ASC_NODE": 93.3807, "ARG_OF_PERICENTER": 289.5474, "MEAN_ANOMALY": 169.7641, "EPHEMERIS_TYPE": 0, "CLASSIFICATION_TYPE": "U", "NORAD_CAT_ID": 66960, "ELEMENT_SET_NO": 999, "REV_AT_EPOCH": 377, "BSTAR": -0.02014, "MEAN_MOTION_DOT": -0.01976257, "MEAN_MOTION_DDOT": 0}, "tle": {"line1": "1 66960U 25288B   25358.83334491 -.01976257  00000+0 -20140-1 0  9996", "line2": "2 66960  43.0002  93.3807 0001464 289.5474 169.7641 15.67392272  3777"}}, "geometry": {"type": "Point", "coordinates": [-99.25163285829012, 9.77275028135295]}}, {"type": "Feature", "properties": {"norad_id": 66961, "name": "STARLINK-35761", "group": "last-30-days", "lat": 8.484334252440396, "lon": -97.81638175158115, "alt_km": 369.6336406066184, "timestamp": "2025-12-25T03:55:54.955558+00:00", "meta": {"OBJECT_NAME": "STARLINK-35761", "OBJECT_ID": "2025-288C", "EPOCH": "2025-12-24T20:00:01.000224", "MEAN_MOTION": 15.67398733, "ECCENTRICITY": 0.0001355, "INCLINATION": 43, "RA_OF_ASC_NODE": 93.376, "ARG_OF_PERICENTER": 288.0663, "MEAN_ANOMALY": 173.1591, "EPHEMERIS_TYPE": 0, "CLASSIFICATION_TYPE": "U", "NORAD_CAT_ID": 66961, "ELEMENT_SET_NO": 999, "REV_AT_EPOCH": 377, "BSTAR": -0.020234, "MEAN_MOTION_DOT": -0.01984801, "MEAN_MOTION_DDOT": 0}, "tle": {"line1": "1 66961U 25288C   25358.83334491 -.01984801  00000+0 -20234-1 0  9995", "line2": "2 66961  43.0000  93.3760 0001355 288.0663 173.1591 15.67398733  3778"}}, "geometry": {"type": "Point", "coordinates": [-97.81638175158115, 8.484334252440396]}}, {"type": "Feature", "properties": {"norad_id": 66962, "name": "STARLINK-35874", "group": "last-30-days", "lat": 7.19237270587594, "lon": -96.3925366119829, "alt_km": 369.77261175110107, "timestamp": "2025-12-25T03:55:54.955570+00:00", "meta": {"OBJECT_NAME": "STARLINK-35874", "OBJECT_ID": "2025-288D", "EPOCH": "2025-12-24T20:00:01.000224", "MEAN_MOTION": 15.67395535, "ECCENTRICITY": 0.0001349, "INCLINATION": 43.0004, "RA_OF_ASC_NODE": 93.3712, "ARG_OF_PERICENTER": 287.5934, "MEAN_ANOMALY": 175.5485, "EPHEMERIS_TYPE": 0, "CLASSIFICATION_TYPE": "U", "NORAD_CAT_ID": 66962, "ELEMENT_SET_NO": 999, "REV_AT_EPOCH": 377, "BSTAR": -0.02016, "MEAN_MOTION_DOT": -0.01978159, "MEAN_MOTION_DDOT": 0}, "tle": {"line1": "1 66962U 25288D   25358.83334491 -.01978159  00000+0 -20160-1 0  9993", "line2": "2 66962  43.0004  93.3712 0001349 287.5934 175.5485 15.67395535  3773"}}, "geometry": {"type": "Point", "coordinates": [-96.3925366119829, 7.19237270587594]}}, {"type": "Feature", "properties": {"norad_id": 66963, "name": "STARLINK-36133", "group": "last-30-days", "lat": 5.894789192439908, "lon": -94.97547401990518, "alt_km": 369.9661579818403, "timestamp": "2025-12-25T03:55:54.955585+00:00", "meta": {"OBJECT_NAME": "STARLINK-36133", "OBJECT_ID": "2025-288E", "EPOCH": "2025-12-24T20:00:01.000224", "MEAN_MOTION": 15.67397318, "ECCENTRICITY": 0.00014, "INCLINATION": 43.0002, "RA_OF_ASC_NODE": 93.3666, "ARG_OF_PERICENTER": 288.6813, "MEAN_ANOMALY": 176.3779, "EPHEMERIS_TYPE": 0, "CLASSIFICATION_TYPE": "U", "NORAD_CAT_ID": 66963, "ELEMENT_SET_NO": 999, "REV_AT_EPOCH": 377, "BSTAR": -0.020195, "MEAN_MOTION_DOT": -0.01981323, "MEAN_MOTION_DDOT": 0}, "tle": {"line1": "1 66963U 25288E   25358.83334491 -.01981323  00000+0 -20195-1 0  9999", "line2": "2 66963  43.0002  93.3666 0001400 288.6813 176.3779 15.67397318  3772"}}, "geometry": {"type": "Point", "coordinates": [-94.97547401990518, 5.894789192439908]}}, {"type": "Feature", "properties": {"norad_id": 66964, "name": "STARLINK-36104", "group": "last-30-days", "lat": 4.593944715990132, "lon": -93.56618853916174, "alt_km": 370.18974569942384, "timestamp": "2025-12-25T03:55:54.955595+00:00", "meta": {"OBJECT_NAME": "STARLINK-36104", "OBJECT_ID": "2025-288F", "EPOCH": "2025-12-24T20:00:01.000224", "MEAN_MOTION": 15.67401182, "ECCENTRICITY": 0.0001497, "INCLINATION": 43, "RA_OF_ASC_NODE": 93.3612, "ARG_OF_PERICENTER": 290.4795, "MEAN_ANOMALY": 176.4965, "EPHEMERIS_TYPE": 0, "CLASSIFICATION_TYPE": "U", "NORAD_CAT_ID": 66964, "ELEMENT_SET_NO": 999, "REV_AT_EPOCH": 377, "BSTAR": -0.020276, "MEAN_MOTION_DOT": -0.01988724, "MEAN_MOTION_DDOT": 0}, "tle": {"line1": "1 66964U 25288F   25358.83334491 -.01988724  00000+0 -20276-1 0  9992", "line2": "2 66964  43.0000  93.3612 0001497 290.4795 176.4965 15.67401182  3771"}}, "geometry": {"type": "Point", "coordinates": [-93.56618853916174, 4.593944715990132]}}, {"type": "Feature", "properties": {"norad_id": 66965, "name": "STARLINK-36067", "group": "last-30-days", "lat": 3.2901339017893063, "lon": -92.16053056037693, "alt_km": 370.32474383688805, "timestamp": "2025-12-25T03:55:54.955605+00:00", "meta": {"OBJECT_NAME": "STARLINK-36067", "OBJECT_ID": "2025-288G", "EPOCH": "2025-12-24T20:00:01.000224", "MEAN_MOTION": 15.67397015, "ECCENTRICITY": 0.0001384, "INCLINATION": 42.9998, "RA_OF_ASC_NODE": 93.3571, "ARG_OF_PERICENTER": 291.8365, "MEAN_ANOMALY": 177.0582, "EPHEMERIS_TYPE": 0, "CLASSIFICATION_TYPE": "U", "NORAD_CAT_ID": 66965, "ELEMENT_SET_NO": 999, "REV_AT_EPOCH": 377, "BSTAR": -0.020222, "MEAN_MOTION_DOT": -0.01983678, "MEAN_MOTION_DDOT": 0}, "tle": {"line1": "1 66965U 25288G   25358.83334491 -.01983678  00000+0 -20222-1 0  9997", "line2": "2 66965  42.9998  93.3571 0001384 291.8365 177.0582 15.67397015  3774"}}, "geometry": {"type": "Point", "coordinates": [-92.16053056037693, 3.2901339017893063]}}, {"type": "Feature", "properties": {"norad_id": 66966, "name": "STARLINK-36139", "group": "last-30-days", "lat": 1.984159352721736, "lon": -90.75971152582456, "alt_km": 370.4579240266976, "timestamp": "2025-12-25T03:55:54.955617+00:00", "meta": {"OBJECT_NAME": "STARLINK-36139", "OBJECT_ID": "2025-288H", "EPOCH": "2025-12-24T20:00:01.000224", "MEAN_MOTION": 15.67400994, "ECCENTRICITY": 0.0001395, "INCLINATION": 43, "RA_OF_ASC_NODE": 93.3516, "ARG_OF_PERICENTER": 290.9285, "MEAN_ANOMALY": 179.8828, "EPHEMERIS_TYPE": 0, "CLASSIFICATION_TYPE": "U", "NORAD_CAT_ID": 66966, "ELEMENT_SET_NO": 999, "REV_AT_EPOCH": 377, "BSTAR": -0.020291, "MEAN_MOTION_DOT": -0.01989899, "MEAN_MOTION_DDOT": 0}, "tle": {"line1": "1 66966U 25288H   25358.83334491 -.01989899  00000+0 -20291-1 0  9995", "line2": "2 66966  43.0000  93.3516 0001395 290.9285 179.8828 15.67400994  3777"}}, "geometry": {"type": "Point", "coordinates": [-90.75971152582456, 1.984159352721736]}}, {"type": "Feature", "properties": {"norad_id": 66967, "name": "STARLINK-36136", "group": "last-30-days", "lat": 0.6787887254686272, "lon": -89.36236129610003, "alt_km": 370.5893568551546, "timestamp": "2025-12-25T03:55:54.955627+00:00", "meta": {"OBJECT_NAME": "STARLINK-36136", "OBJECT_ID": "2025-288J", "EPOCH": "2025-12-24T20:00:01.000224", "MEAN_MOTION": 15.67398518, "ECCENTRICITY": 0.0001434, "INCLINATION": 43.0001, "RA_OF_ASC_NODE": 93.3468, "ARG_OF_PERICENTER": 290.1604, "MEAN_ANOMALY": 182.5675, "EPHEMERIS_TYPE": 0, "CLASSIFICATION_TYPE": "U", "NORAD_CAT_ID": 66967, "ELEMENT_SET_NO": 999, "REV_AT_EPOCH": 377, "BSTAR": -0.020238, "MEAN_MOTION_DOT": -0.01985133, "MEAN_MOTION_DDOT": 0}, "tle": {"line1": "1 66967U 25288J   25358.83334491 -.01985133  00000+0 -20238-1 0  9994", "line2": "2 66967  43.0001  93.3468 0001434 290.1604 182.5675 15.67398518  3775"}}, "geometry": {"type": "Point", "coordinates": [-89.36236129610003, 0.6787887254686272]}}, {"type": "Feature", "properties": {"norad_id": 66968, "name": "STARLINK-36152", "group": "last-30-days", "lat": -0.6291567880590051, "lon": -87.96325402153877, "alt_km": 370.71648489112977, "timestamp": "2025-12-25T03:55:54.955637+00:00", "meta": {"OBJECT_NAME": "STARLINK-36152", "OBJECT_ID": "2025-288K", "EPOCH": "2025-12-24T20:00:01.000224", "MEAN_MOTION": 15.67399995, "ECCENTRICITY": 0.0001381, "INCLINATION": 43.0001, "RA_OF_ASC_NODE": 93.3422, "ARG_OF_PERICENTER": 290.4019, "MEAN_ANOMALY": 184.2433, "EPHEMERIS_TYPE": 0, "CLASSIFICATION_TYPE": "U", "NORAD_CAT_ID": 66968, "ELEMENT_SET_NO": 999, "REV_AT_EPOCH": 377, "BSTAR": -0.020261, "MEAN_MOTION_DOT": -0.01987214, "MEAN_MOTION_DDOT": 0}, "tle": {"line1": "1 66968U 25288K   25358.83334491 -.01987214  00000+0 -20261-1 0  9993", "line2": "2 66968  43.0001  93.3422 0001381 290.4019 184.2433 15.67399995  3771"}}, "geometry": {"type": "Point", "coordinates": [-87.96325402153877, -0.6291567880590051]}}]}